{
  "norad_id": 62328,
  "name": "HULIANWANG DIGUI-06",
  "history": [
    {
      "epoch": "2026-03-28T21:06:01.492416Z",
      "apogee_km": 1169.564076227507,
      "perigee_km": 1166.2661496120763,
      "latitude_deg": 7.249948811636886e-05,
      "longitude_deg": -132.59711314503613,
      "height_km": 1170.4769256572304,
      "semi_major_axis_km": 7546.052112919791,
      "eccentricity": 0.00021852,
      "inclination_deg": 86.5037,
      "raan_deg": 10.2024,
      "arg_perigee_deg": 78.4926,
      "mean_anomaly_deg": 281.6454,
      "mean_motion_rev_day": 13.24411862
    },
    {
      "epoch": "2026-03-29T04:21:10.946880Z",
      "apogee_km": 1169.5621805412475,
      "perigee_km": 1166.267574291568,
      "latitude_deg": 3.4888713434052876e-06,
      "longitude_deg": 118.21383432918941,
      "height_km": 1170.4749327099735,
      "semi_major_axis_km": 7546.0518774164075,
      "eccentricity": 0.0002183,
      "inclination_deg": 86.5037,
      "raan_deg": 10.1006,
      "arg_perigee_deg": 78.4179,
      "mean_anomaly_deg": 281.72,
      "mean_motion_rev_day": 13.24411924
    }
  ]
}